     2.01           GLONASS NAV DATA                        RINEX VERSION / TYPE
CCRINEXG V1.4 UX    CDDIS               10-JUN-25 12:33     PGM / RUN BY / DATE 
IGS BROADCAST EPHEMERIS FILE                                COMMENT             
teqc  2020Oct7      UNAVCO Archive Ops  20250610  1:48:     COMMENT             
  2025     6     9   -0.139698386192D-08                    CORR TO SYSTEM TIME 
    18                                                      LEAP SECONDS        
                                                            END OF HEADER       
24 25  6  9  2 45  0.0-0.107974745333D-03-0.181898940355D-11 0.900000000000D+04
    0.211572031250D+05 0.176219272614D+01-0.000000000000D+00 0.000000000000D+00
    0.316629003906D+04 0.733618736267D+00-0.279396772385D-08 0.200000000000D+01
   -0.138992871094D+05 0.284519195557D+01-0.000000000000D+00 0.000000000000D+00
 1 25  6  9  3 15  0.0 0.128022395074D-03 0.909494701773D-12 0.108000000000D+05
    0.989598681641D+04-0.231525039673D+01-0.000000000000D+00 0.000000000000D+00
    0.548972802734D+04 0.210785865784D+01-0.186264514923D-08 0.100000000000D+01
   -0.228604633789D+05-0.494309425354D+00 0.931322574616D-09 0.000000000000D+00
 2 25  6  9  3 15  0.0-0.309152528644D-04 0.000000000000D+00 0.108000000000D+05
    0.194799370117D+05-0.161142349243D+01 0.000000000000D+00 0.000000000000D+00
   -0.784177246094D+04 0.116636657715D+01-0.372529029846D-08-0.400000000000D+01
   -0.143883906250D+05-0.281393146515D+01-0.000000000000D+00 0.000000000000D+00
 3 25  6  9  3 15  0.0 0.123918987811D-03 0.000000000000D+00 0.108000000000D+05
    0.180255922852D+05 0.212769508362D+00 0.000000000000D+00 0.000000000000D+00
   -0.177109282227D+05-0.435479164124D+00-0.279396772385D-08 0.500000000000D+01
    0.330315087891D+04-0.355243682861D+01-0.279396772385D-08 0.000000000000D+00
 4 25  6  9  3 15  0.0 0.295259058476D-03 0.181898940355D-11 0.108000000000D+05
    0.702706103516D+04 0.178278446197D+01 0.000000000000D+00 0.000000000000D+00
   -0.167406567383D+05-0.168991279602D+01-0.931322574616D-09 0.600000000000D+01
    0.179424760742D+05-0.227960109711D+01-0.279396772385D-08 0.000000000000D+00
 5 25  6  9  3 15  0.0 0.151108019054D-03 0.909494701773D-12 0.108000000000D+05
   -0.792007714844D+04 0.243292045593D+01 0.000000000000D+00 0.000000000000D+00
   -0.720044628906D+04-0.203448772430D+01 0.186264514923D-08 0.100000000000D+01
    0.231654819336D+05 0.197918891907D+00-0.186264514923D-08 0.000000000000D+00
 6 25  6  9  3 15  0.0-0.218118540943D-03-0.909494701773D-12 0.119400000000D+05
   -0.196998671875D+05 0.135949039459D+01-0.000000000000D+00 0.000000000000D+00
    0.102699746094D+05-0.106109714508D+01 0.372529029846D-08-0.400000000000D+01
    0.125322197266D+05 0.300282859802D+01 0.931322574616D-09 0.000000000000D+00
 7 25  6  9  3 15  0.0 0.107228755951D-03 0.000000000000D+00 0.108000000000D+05
   -0.181365488281D+05-0.203989982605D+00-0.000000000000D+00 0.000000000000D+00
    0.176820336914D+05 0.436533927918D+00 0.279396772385D-08 0.500000000000D+01
   -0.317249755859D+04 0.354802036285D+01 0.279396772385D-08 0.000000000000D+00
 8 25  6  9  3 15  0.0-0.472273677588D-05-0.000000000000D+00 0.108000000000D+05
   -0.663177734375D+04-0.178990650177D+01-0.000000000000D+00 0.000000000000D+00
    0.167927993164D+05 0.171362018585D+01 0.000000000000D+00 0.600000000000D+01
   -0.179726069336D+05 0.225079917908D+01 0.279396772385D-08 0.000000000000D+00
 9 25  6  9  3 15  0.0 0.259744003415D-03 0.181898940355D-11 0.108000000000D+05
   -0.118927001953D+05-0.724654197693D+00 0.186264514923D-08 0.000000000000D+00
   -0.185832812500D+04-0.299380111694D+01-0.931322574616D-09-0.200000000000D+01
   -0.224739433594D+05 0.622120857239D+00 0.931322574616D-09 0.000000000000D+00
10 25  6  9  3 15  0.0-0.336505472660D-03-0.454747350886D-11 0.108000000000D+05
   -0.671345703125D+04-0.486407279968D+00-0.000000000000D+00 0.000000000000D+00
    0.145206997070D+05-0.267759895325D+01 0.000000000000D+00-0.700000000000D+01
   -0.198980795898D+05-0.178276920319D+01 0.279396772385D-08 0.000000000000D+00
11 25  6  9  3 15  0.0 0.170040875673D-04-0.909494701773D-12 0.117600000000D+05
    0.199641992188D+04-0.202283859253D-01-0.186264514923D-08 0.000000000000D+00
    0.246278652344D+05-0.876307487488D+00 0.186264514923D-08 0.000000000000D+00
   -0.627998681641D+04-0.343687629700D+01 0.279396772385D-08 0.000000000000D+00
12 25  6  9  3 15  0.0 0.552637502551D-04 0.909494701773D-12 0.108300000000D+05
    0.102297807617D+05 0.468975067139D+00-0.279396772385D-08 0.000000000000D+00
    0.194882353516D+05 0.170548248291D+01 0.279396772385D-08-0.100000000000D+01
    0.129295068359D+05-0.294749736786D+01 0.931322574616D-09 0.000000000000D+00
13 25  6  9  3 15  0.0-0.597583130002D-04-0.000000000000D+00 0.108000000000D+05
    0.118619750977D+05 0.668277740478D+00-0.186264514923D-08 0.000000000000D+00
    0.472369482422D+04 0.294922637940D+01 0.186264514923D-08-0.200000000000D+01
    0.220758569336D+05-0.989539146423D+00-0.931322574616D-09 0.000000000000D+00
14 25  6  9  3 15  0.0 0.285971909761D-04 0.000000000000D+00 0.108000000000D+05
    0.613830078125D+04 0.464242935181D+00-0.000000000000D+00 0.000000000000D+00
   -0.158241318359D+05 0.256407165527D+01-0.000000000000D+00-0.700000000000D+01
    0.190694228516D+05 0.197775650024D+01-0.279396772385D-08 0.000000000000D+00
15 25  6  9  3 15  0.0 0.674920156598D-04-0.000000000000D+00 0.108000000000D+05
   -0.270687451172D+04-0.166130065918D-01 0.186264514923D-08 0.000000000000D+00
   -0.249470112305D+05 0.647573471069D+00-0.186264514923D-08 0.000000000000D+00
    0.464236621094D+04 0.348738670349D+01-0.279396772385D-08 0.000000000000D+00
16 25  6  9  3 15  0.0 0.366428866983D-04 0.909494701773D-12 0.124200000000D+05
   -0.101409184570D+05-0.491129875183D+00 0.279396772385D-08 0.000000000000D+00
   -0.195661181641D+05-0.169966030121D+01-0.279396772385D-08-0.100000000000D+01
   -0.128652973633D+05 0.296466159821D+01-0.931322574616D-09 0.000000000000D+00
17 25  6  9  3 15  0.0 0.199105590582D-03 0.272848410532D-11 0.108000000000D+05
    0.125846210938D+05 0.278824043274D+01 0.000000000000D+00 0.000000000000D+00
   -0.604373193359D+04 0.889627456665D+00-0.372529029846D-08 0.400000000000D+01
   -0.213578930664D+05 0.138678264618D+01 0.000000000000D+00 0.000000000000D+00
18 25  6  9  3 15  0.0 0.205925665796D-03 0.181898940355D-11 0.108000000000D+05
   -0.421382861328D+04 0.280777740478D+01 0.186264514923D-08 0.000000000000D+00
   -0.122152060547D+05 0.110304737091D+01-0.372529029846D-08-0.300000000000D+01
   -0.219923310547D+05-0.114607143402D+01 0.000000000000D+00 0.000000000000D+00
19 25  6  9  3 15  0.0-0.946503132582D-05-0.545696821064D-11 0.108000000000D+05
   -0.193056552734D+05 0.129584121704D+01 0.279396772385D-08 0.000000000000D+00
   -0.128797675781D+05 0.647695541382D+00-0.931322574616D-09 0.300000000000D+01
   -0.105323666992D+05-0.317505455017D+01 0.000000000000D+00 0.000000000000D+00
20 25  6  9  3 15  0.0-0.131471082568D-03-0.000000000000D+00 0.108000000000D+05
   -0.235706982422D+05-0.109851837158D+01 0.931322574616D-09 0.000000000000D+00
   -0.568302929688D+04-0.201145172119D+00 0.186264514923D-08 0.200000000000D+01
    0.798406542969D+04-0.338376235962D+01 0.000000000000D+00 0.000000000000D+00
21 25  6  9  3 15  0.0-0.209093093872D-03-0.363797880709D-11 0.108000000000D+05
   -0.142687553711D+05-0.268704223633D+01-0.000000000000D+00 0.000000000000D+00
    0.484427441406D+04-0.865677833557D+00 0.372529029846D-08 0.400000000000D+01
    0.205651743164D+05-0.166267204285D+01 0.000000000000D+00 0.000000000000D+00
22 25  6  9  3 15  0.0 0.690249726176D-04 0.181898940355D-11 0.123900000000D+05
    0.525197607422D+04-0.270207214356D+01-0.186264514923D-08 0.000000000000D+00
    0.129485854492D+05-0.110594844818D+01 0.279396772385D-08-0.300000000000D+01
    0.213600903320D+05 0.133674716949D+01-0.000000000000D+00 0.000000000000D+00
23 25  6  9  3 15  0.0-0.157129950821D-03-0.909494701773D-12 0.108300000000D+05
    0.189367519531D+05-0.140537834168D+01-0.279396772385D-08 0.000000000000D+00
    0.126555083008D+05-0.738405227661D+00 0.931322574616D-09 0.300000000000D+01
    0.114721523438D+05 0.313050174713D+01 0.000000000000D+00 0.000000000000D+00
24 25  6  9  3 15  0.0-0.107977539301D-03-0.181898940355D-11 0.108000000000D+05
    0.237900268555D+05 0.112617588043D+01-0.931322574616D-09 0.000000000000D+00
    0.400944824219D+04 0.226413726807D+00-0.186264514923D-08 0.200000000000D+01
   -0.830700781250D+04 0.332809638977D+01-0.000000000000D+00 0.000000000000D+00
 1 25  6  9  3 45  0.0 0.128024257720D-03 0.909494701773D-12 0.126000000000D+05
    0.599704052734D+04-0.198113441467D+01-0.000000000000D+00 0.000000000000D+00
    0.960255468750D+04 0.242415046692D+01-0.931322574616D-09 0.100000000000D+01
   -0.228550703125D+05 0.500316619873D+00 0.186264514923D-08 0.000000000000D+00
 2 25  6  9  3 45  0.0-0.309143215418D-04 0.000000000000D+00 0.126000000000D+05
    0.163452910156D+05-0.182388782501D+01-0.000000000000D+00 0.000000000000D+00
   -0.512433496094D+04 0.184693813324D+01-0.372529029846D-08-0.400000000000D+01
   -0.188279023438D+05-0.208662128449D+01 0.000000000000D+00 0.000000000000D+00
 3 25  6  9  3 45  0.0 0.123919919133D-03 0.000000000000D+00 0.126000000000D+05
    0.178033647461D+05-0.430598258972D+00 0.000000000000D+00 0.000000000000D+00
   -0.179469877930D+05 0.202948570252D+00-0.372529029846D-08 0.500000000000D+01
   -0.313645166016D+04-0.355604934692D+01-0.186264514923D-08 0.000000000000D+00
 4 25  6  9  3 45  0.0 0.295262783766D-03 0.181898940355D-11 0.126000000000D+05
    0.960824023438D+04 0.108098220825D+01 0.000000000000D+00 0.000000000000D+00
   -0.196132070312D+05-0.145477962494D+01-0.186264514923D-08 0.600000000000D+01
    0.131997480469D+05-0.295603561401D+01-0.279396772385D-08 0.000000000000D+00
